[{"OBJECT_NAME":"O3B FM20","OBJECT_ID":"2019-020A","EPOCH":"2026-03-05T11:15:01.562976","MEAN_MOTION":5.001155,"ECCENTRICITY":0.0002804,"INCLINATION":0.0517,"RA_OF_ASC_NODE":359.6814,"ARG_OF_PERICENTER":332.8765,"MEAN_ANOMALY":27.4214,"EPHEMERIS_TYPE":0,"CLASSIFICATION_TYPE":"U","NORAD_CAT_ID":44112,"ELEMENT_SET_NO":999,"REV_AT_EPOCH":12638,"BSTAR":0,"MEAN_MOTION_DOT":-2.7e-7,"MEAN_MOTION_DDOT":0},{"OBJECT_NAME":"O3B FM19","OBJECT_ID":"2019-020B","EPOCH":"2026-02-27T21:34:30.034272","MEAN_MOTION":5.00116325,"ECCENTRICITY":0.0004795,"INCLINATION":0.0602,"RA_OF_ASC_NODE":347.5601,"ARG_OF_PERICENTER":353.9797,"MEAN_ANOMALY":18.4356,"EPHEMERIS_TYPE":0,"CLASSIFICATION_TYPE":"U","NORAD_CAT_ID":44113,"ELEMENT_SET_NO":999,"REV_AT_EPOCH":12597,"BSTAR":0,"MEAN_MOTION_DOT":-2.7e-7,"MEAN_MOTION_DDOT":0},{"OBJECT_NAME":"O3B FM17","OBJECT_ID":"2019-020C","EPOCH":"2026-03-05T09:01:31.057824","MEAN_MOTION":5.00115476,"ECCENTRICITY":0.0002685,"INCLINATION":0.0393,"RA_OF_ASC_NODE":340.1862,"ARG_OF_PERICENTER":359.0551,"MEAN_ANOMALY":20.7418,"EPHEMERIS_TYPE":0,"CLASSIFICATION_TYPE":"U","NORAD_CAT_ID":44114,"ELEMENT_SET_NO":999,"REV_AT_EPOCH":12633,"BSTAR":0,"MEAN_MOTION_DOT":-2.7e-7,"MEAN_MOTION_DDOT":0},{"OBJECT_NAME":"O3B FM18","OBJECT_ID":"2019-020D","EPOCH":"2026-03-03T12:33:35.684352","MEAN_MOTION":5.00115242,"ECCENTRICITY":0.0002751,"INCLINATION":0.0519,"RA_OF_ASC_NODE":0.0145,"ARG_OF_PERICENTER":341.722,"MEAN_ANOMALY":18.2467,"EPHEMERIS_TYPE":0,"CLASSIFICATION_TYPE":"U","NORAD_CAT_ID":44115,"ELEMENT_SET_NO":999,"REV_AT_EPOCH":12636,"BSTAR":0,"MEAN_MOTION_DOT":-2.8e-7,"MEAN_MOTION_DDOT":0},{"OBJECT_NAME":"SALSAT","OBJECT_ID":"2020-068K","EPOCH":"2026-03-05T13:08:47.110272","MEAN_MOTION":15.28084035,"ECCENTRICITY":0.0008579,"INCLINATION":97.8852,"RA_OF_ASC_NODE":61.4374,"ARG_OF_PERICENTER":314.2144,"MEAN_ANOMALY":45.8389,"EPHEMERIS_TYPE":0,"CLASSIFICATION_TYPE":"U","NORAD_CAT_ID":46495,"ELEMENT_SET_NO":999,"REV_AT_EPOCH":29952,"BSTAR":0.00043846,"MEAN_MOTION_DOT":0.00011945,"MEAN_MOTION_DDOT":0},{"OBJECT_NAME":"O3B MPOWER F1","OBJECT_ID":"2022-174A","EPOCH":"2026-03-05T16:16:38.175168","MEAN_MOTION":5.00103107,"ECCENTRICITY":0.0005187,"INCLINATION":0.064,"RA_OF_ASC_NODE":350.9077,"ARG_OF_PERICENTER":10.1156,"MEAN_ANOMALY":139.9725,"EPHEMERIS_TYPE":0,"CLASSIFICATION_TYPE":"U","NORAD_CAT_ID":54755,"ELEMENT_SET_NO":999,"REV_AT_EPOCH":6018,"BSTAR":0,"MEAN_MOTION_DOT":-2.7e-7,"MEAN_MOTION_DDOT":0},{"OBJECT_NAME":"O3B MPOWER F2","OBJECT_ID":"2022-174B","EPOCH":"2026-03-03T12:48:44.541504","MEAN_MOTION":5.00690325,"ECCENTRICITY":0.00461256,"INCLINATION":0.1272,"RA_OF_ASC_NODE":326.2177,"ARG_OF_PERICENTER":76.0907,"MEAN_ANOMALY":318.0389,"EPHEMERIS_TYPE":0,"CLASSIFICATION_TYPE":"U","NORAD_CAT_ID":54756,"ELEMENT_SET_NO":999,"REV_AT_EPOCH":6015,"BSTAR":0,"MEAN_MOTION_DOT":-2.8e-7,"MEAN_MOTION_DDOT":0},{"OBJECT_NAME":"O3B MPOWER F4","OBJECT_ID":"2023-059A","EPOCH":"2026-02-17T05:46:40.580544","MEAN_MOTION":5.00119607,"ECCENTRICITY":0.00064606,"INCLINATION":0.0593,"RA_OF_ASC_NODE":7.9241,"ARG_OF_PERICENTER":334.3658,"MEAN_ANOMALY":17.6828,"EPHEMERIS_TYPE":0,"CLASSIFICATION_TYPE":"U","NORAD_CAT_ID":56367,"ELEMENT_SET_NO":999,"REV_AT_EPOCH":5260,"BSTAR":0,"MEAN_MOTION_DOT":-1.5e-7,"MEAN_MOTION_DDOT":0}]
